[{"OBJECT_NAME":"AFR-1","OBJECT_ID":"2023-084AJ","EPOCH":"2026-03-09T23:02:07.499328","MEAN_MOTION":15.27543824,"ECCENTRICITY":0.00099838,"INCLINATION":97.6099,"RA_OF_ASC_NODE":203.4313,"ARG_OF_PERICENTER":334.9676,"MEAN_ANOMALY":25.1077,"EPHEMERIS_TYPE":0,"CLASSIFICATION_TYPE":"U","NORAD_CAT_ID":56964,"ELEMENT_SET_NO":999,"REV_AT_EPOCH":15207,"BSTAR":0.00024843733,"MEAN_MOTION_DOT":6.624e-5,"MEAN_MOTION_DDOT":0},{"OBJECT_NAME":"STARLINK-33575","OBJECT_ID":"2025-015C","EPOCH":"2026-03-09T23:22:19.413120","MEAN_MOTION":15.30204787,"ECCENTRICITY":9.424e-5,"INCLINATION":53.1594,"RA_OF_ASC_NODE":321.1786,"ARG_OF_PERICENTER":133.3549,"MEAN_ANOMALY":226.753,"EPHEMERIS_TYPE":0,"CLASSIFICATION_TYPE":"U","NORAD_CAT_ID":62760,"ELEMENT_SET_NO":999,"REV_AT_EPOCH":6376,"BSTAR":0.00076854083,"MEAN_MOTION_DOT":0.00022475,"MEAN_MOTION_DDOT":0}]
